ONEWEB-0610             
1 54673U 22166AH  23059.25001157 -.00705286  00000+0 -56375+0 0  9996
2 54673  87.1268 126.1958 0009452 324.1495  80.6399 13.93615201 12536
ONEWEB-0610             
1 54673U 22166AH  23059.58334491 -.00623290  00000+0 -50364+0 0  9998
2 54673  87.1335 126.0913 0009344 323.2671 312.5449 13.93102195  1306
ONEWEB-0610             
1 54673U 22166AH  23060.00001157 -.00631759  00000+0 -51604+0 0  9994
2 54673  87.1422 125.9626 0009283 322.3969 241.3894 13.92518962 12648
ONEWEB-0610             
1 54673U 22166AH  23060.58334491 -.00622556  00000+0 -51539+0 0  9999
2 54673  87.1543 125.7813 0009357 320.0486 285.4289 13.91704364 12727
ONEWEB-0610             
1 54673U 22166AH  23061.00001157 -.00627738  00000+0 -52519+0 0  9993
2 54673  87.1627 125.6538 0009350 318.9707 212.3868 13.91119688  1301
ONEWEB-0610             
1 54673U 22166AH  23061.25001157 -.00710534  00000+0 -59641+0 0  9990
2 54673  87.1678 125.5769 0009459 316.9122  25.5325 13.90821775 12817
ONEWEB-0610             
1 54673U 22166AH  23061.83334491 -.00715095  00000+0 -60899+0 0  9998
2 54673  87.1798 125.3986 0009487 315.5313  64.9489 13.90002362  1300
ONEWEB-0610             
1 54673U 22166AH  23062.50001157 -.00637241  00000+0 -55313+0 0  9994
2 54673  87.1935 125.1955 0009536 313.6889 159.6048 13.89031343 12987
ONEWEB-0610             
1 54673U 22166AH  23062.58334491 -.00619707  00000+0 -53829+0 0  9999
2 54673  87.1952 125.1700 0009458 313.4132 216.3219 13.88910867  1307
ONEWEB-0610             
1 54673U 22166AH  23062.91667824 -.00672504  00000+0 -59108+0 0  9995
2 54673  87.2020 125.0702 0009486 311.9164  83.2391 13.88466091  1301
